{
  "type": "FeatureCollection",
  "features": [
    {
      "type": "Feature",
      "properties": {
        "norad_id": 66746,
        "name": "TRANSPORTER-15CJ",
        "group": "last-30-days",
        "lat": 39.82445287498674,
        "lon": 65.54892128998189,
        "alt_km": 512.6435270766879,
        "timestamp": "2025-12-26T04:40:04.510976+00:00",
        "meta_object_name": "TRANSPORTER-15CJ",
        "meta_object_id": "2025-276CJ",
        "meta_epoch": "2025-12-25T20:35:18.189888",
        "meta_mean_motion": 15.19450182,
        "meta_eccentricity": 0.00134226,
        "meta_inclination": 97.3832,
        "meta_ra_of_asc_node": 71.4273,
        "meta_arg_of_pericenter": 193.8644,
        "meta_mean_anomaly": 166.2224,
        "meta_ephemeris_type": 0,
        "meta_classification_type": "U",
        "meta_norad_cat_id": 66746,
        "meta_element_set_no": 999,
        "meta_rev_at_epoch": 411,
        "meta_bstar": 0.00083072635,
        "meta_mean_motion_dot": 0.00017611,
        "meta_mean_motion_ddot": 0,
        "tle_line1": "1 66746U 25276CJ  25359.85784942  .00017611  00000+0  83073-3 0  9991",
        "tle_line2": "2 66746  97.3832  71.4273 0013422 193.8644 166.2224 15.19450182  4119"
      },
      "geometry": {
        "type": "Point",
        "coordinates": [
          65.54892128998189,
          39.82445287498674
        ]
      }
    },
    {
      "type": "Feature",
      "properties": {
        "norad_id": 66747,
        "name": "W-SERIES 5",
        "group": "last-30-days",
        "lat": 33.48543037700046,
        "lon": 66.77008581870567,
        "alt_km": 512.156982901256,
        "timestamp": "2025-12-26T04:40:04.510986+00:00",
        "meta_object_name": "W-SERIES 5",
        "meta_object_id": "2025-276CK",
        "meta_epoch": "2025-12-25T22:00:01.999584",
        "meta_mean_motion": 15.17585766,
        "meta_eccentricity": 0.00016533,
        "meta_inclination": 97.4407,
        "meta_ra_of_asc_node": 71.4568,
        "meta_arg_of_pericenter": 184.7947,
        "meta_mean_anomaly": 132.3498,
        "meta_ephemeris_type": 0,
        "meta_classification_type": "U",
        "meta_norad_cat_id": 66747,
        "meta_element_set_no": 999,
        "meta_rev_at_epoch": 130,
        "meta_bstar": -0.0014355501,
        "meta_mean_motion_dot": -0.00028773,
        "meta_mean_motion_ddot": 0,
        "tle_line1": "1 66747U 25276CK  25359.91668981 -.00028773  00000+0 -14356-2 0  9993",
        "tle_line2": "2 66747  97.4407  71.4568 0001653 184.7947 132.3498 15.17585766  1304"
      },
      "geometry": {
        "type": "Point",
        "coordinates": [
          66.77008581870567,
          33.48543037700046
        ]
      }
    },
    {
      "type": "Feature",
      "properties": {
        "norad_id": 66748,
        "name": "TRANSPORTER-15CL",
        "group": "last-30-days",
        "lat": 81.7983109903374,
        "lon": -43.20404936978777,
        "alt_km": 503.1243932290763,
        "timestamp": "2025-12-26T04:40:04.510997+00:00",
        "meta_object_name": "TRANSPORTER-15CL",
        "meta_object_id": "2025-276CL",
        "meta_epoch": "2025-12-25T21:55:56.355744",
        "meta_mean_motion": 15.18625645,
        "meta_eccentricity": 0.00021389,
        "meta_inclination": 97.4398,
        "meta_ra_of_asc_node": 71.476,
        "meta_arg_of_pericenter": 208.6632,
        "meta_mean_anomaly": 151.4485,
        "meta_ephemeris_type": 0,
        "meta_classification_type": "U",
        "meta_norad_cat_id": 66748,
        "meta_element_set_no": 999,
        "meta_rev_at_epoch": 412,
        "meta_bstar": 0.00088458166,
        "meta_mean_motion_dot": 0.00018276,
        "meta_mean_motion_ddot": 0,
        "tle_line1": "1 66748U 25276CL  25359.91384671  .00018276  00000+0  88458-3 0  9995",
        "tle_line2": "2 66748  97.4398  71.4760 0002138 208.6632 151.4485 15.18625645  4127"
      },
      "geometry": {
        "type": "Point",
        "coordinates": [
          -43.20404936978777,
          81.7983109903374
        ]
      }
    },
    {
      "type": "Feature",
      "properties": {
        "norad_id": 66749,
        "name": "TRANSPORTER-15CM",
        "group": "last-30-days",
        "lat": 59.85693013587859,
        "lon": 58.73093586049798,
        "alt_km": 506.9228157453981,
        "timestamp": "2025-12-26T04:40:04.511008+00:00",
        "meta_object_name": "TRANSPORTER-15CM",
        "meta_object_id": "2025-276CM",
        "meta_epoch": "2025-12-25T22:04:22.336608",
        "meta_mean_motion": 15.17918487,
        "meta_eccentricity": 0.00020586,
        "meta_inclination": 97.4394,
        "meta_ra_of_asc_node": 71.4651,
        "meta_arg_of_pericenter": 175.6411,
        "meta_mean_anomaly": 184.4841,
        "meta_ephemeris_type": 0,
        "meta_classification_type": "U",
        "meta_norad_cat_id": 66749,
        "meta_element_set_no": 999,
        "meta_rev_at_epoch": 412,
        "meta_bstar": 0.00048553208,
        "meta_mean_motion_dot": 9.788e-05,
        "meta_mean_motion_ddot": 0,
        "tle_line1": "1 66749U 25276CM  25359.91970297  .00009788  00000+0  48553-3 0  9991",
        "tle_line2": "2 66749  97.4394  71.4651 0002058 175.6411 184.4841 15.17918487  4122"
      },
      "geometry": {
        "type": "Point",
        "coordinates": [
          58.73093586049798,
          59.85693013587859
        ]
      }
    },
    {
      "type": "Feature",
      "properties": {
        "norad_id": 66750,
        "name": "TRANSPORTER-15CN",
        "group": "last-30-days",
        "lat": 77.15459072871705,
        "lon": 36.77629772820394,
        "alt_km": 503.7382093180122,
        "timestamp": "2025-12-26T04:40:04.511018+00:00",
        "meta_object_name": "TRANSPORTER-15CN",
        "meta_object_id": "2025-276CN",
        "meta_epoch": "2025-12-25T21:59:27.920832",
        "meta_mean_motion": 15.18062976,
        "meta_eccentricity": 0.00023503,
        "meta_inclination": 97.4433,
        "meta_ra_of_asc_node": 71.4859,
        "meta_arg_of_pericenter": 144.6361,
        "meta_mean_anomaly": 215.503,
        "meta_ephemeris_type": 0,
        "meta_classification_type": "U",
        "meta_norad_cat_id": 66750,
        "meta_element_set_no": 999,
        "meta_rev_at_epoch": 412,
        "meta_bstar": 0.00027591186,
        "meta_mean_motion_dot": 5.554e-05,
        "meta_mean_motion_ddot": 0,
        "tle_line1": "1 66750U 25276CN  25359.91629538  .00005554  00000+0  27591-3 0  9998",
        "tle_line2": "2 66750  97.4433  71.4859 0002350 144.6361 215.5030 15.18062976  4123"
      },
      "geometry": {
        "type": "Point",
        "coordinates": [
          36.77629772820394,
          77.15459072871705
        ]
      }
    },
    {
      "type": "Feature",
      "properties": {
        "norad_id": 66751,
        "name": "ICEYE-X58",
        "group": "last-30-days",
        "lat": 57.123019174357154,
        "lon": 60.0772573676689,
        "alt_km": 508.1873617600186,
        "timestamp": "2025-12-26T04:40:04.511028+00:00",
        "meta_object_name": "ICEYE-X58",
        "meta_object_id": "2025-276CP",
        "meta_epoch": "2025-12-25T22:05:05.348256",
        "meta_mean_motion": 15.17828472,
        "meta_eccentricity": 0.00026166,
        "meta_inclination": 97.4407,
        "meta_ra_of_asc_node": 71.473,
        "meta_arg_of_pericenter": 192.2714,
        "meta_mean_anomaly": 167.8456,
        "meta_ephemeris_type": 0,
        "meta_classification_type": "U",
        "meta_norad_cat_id": 66751,
        "meta_element_set_no": 999,
        "meta_rev_at_epoch": 412,
        "meta_bstar": 0.00026363317,
        "meta_mean_motion_dot": 5.268e-05,
        "meta_mean_motion_ddot": 0,
        "tle_line1": "1 66751U 25276CP  25359.92020079  .00005268  00000+0  26363-3 0  9993",
        "tle_line2": "2 66751  97.4407  71.4730 0002616 192.2714 167.8456 15.17828472  4120"
      },
      "geometry": {
        "type": "Point",
        "coordinates": [
          60.0772573676689,
          57.123019174357154
        ]
      }
    },
    {
      "type": "Feature",
      "properties": {
        "norad_id": 66752,
        "name": "ICEYE-X59",
        "group": "last-30-days",
        "lat": 38.518030225575885,
        "lon": 65.76370846370763,
        "alt_km": 511.5304924138718,
        "timestamp": "2025-12-26T04:40:04.511039+00:00",
        "meta_object_name": "ICEYE-X59",
        "meta_object_id": "2025-276CQ",
        "meta_epoch": "2025-12-25T20:35:05.723232",
        "meta_mean_motion": 15.17635276,
        "meta_eccentricity": 0.00019869,
        "meta_inclination": 97.4401,
        "meta_ra_of_asc_node": 71.4032,
        "meta_arg_of_pericenter": 219.6068,
        "meta_mean_anomaly": 140.5021,
        "meta_ephemeris_type": 0,
        "meta_classification_type": "U",
        "meta_norad_cat_id": 66752,
        "meta_element_set_no": 999,
        "meta_rev_at_epoch": 411,
        "meta_bstar": 0.00046377473,
        "meta_mean_motion_dot": 9.27e-05,
        "meta_mean_motion_ddot": 0,
        "tle_line1": "1 66752U 25276CQ  25359.85770513  .00009270  00000+0  46377-3 0  9995",
        "tle_line2": "2 66752  97.4401  71.4032 0001986 219.6068 140.5021 15.17635276  4118"
      },
      "geometry": {
        "type": "Point",
        "coordinates": [
          65.76370846370763,
          38.518030225575885
        ]
      }
    }
  ]
}